[{"OBJECT_NAME":"SL-16 R/B","OBJECT_ID":"1993-059B","EPOCH":"2026-03-08T21:53:38.639328","MEAN_MOTION":14.17231748,"ECCENTRICITY":0.00185788,"INCLINATION":70.9926,"RA_OF_ASC_NODE":12.765,"ARG_OF_PERICENTER":217.6693,"MEAN_ANOMALY":142.3131,"EPHEMERIS_TYPE":0,"CLASSIFICATION_TYPE":"U","NORAD_CAT_ID":22803,"ELEMENT_SET_NO":999,"REV_AT_EPOCH":67942,"BSTAR":-5.747966e-5,"MEAN_MOTION_DOT":-1.64e-6,"MEAN_MOTION_DDOT":0},{"OBJECT_NAME":"ARIANE 40 R/B","OBJECT_ID":"1993-061H","EPOCH":"2026-03-08T18:58:43.177728","MEAN_MOTION":14.32860537,"ECCENTRICITY":0.00095451,"INCLINATION":98.4917,"RA_OF_ASC_NODE":136.6961,"ARG_OF_PERICENTER":288.1291,"MEAN_ANOMALY":71.8853,"EPHEMERIS_TYPE":0,"CLASSIFICATION_TYPE":"U","NORAD_CAT_ID":22830,"ELEMENT_SET_NO":999,"REV_AT_EPOCH":69397,"BSTAR":0.00011347999,"MEAN_MOTION_DOT":2.67e-6,"MEAN_MOTION_DDOT":0},{"OBJECT_NAME":"COSMOS 2278","OBJECT_ID":"1994-023A","EPOCH":"2026-03-08T17:58:36.126336","MEAN_MOTION":14.14378674,"ECCENTRICITY":0.0007959,"INCLINATION":71.0551,"RA_OF_ASC_NODE":177.065,"ARG_OF_PERICENTER":15.0886,"MEAN_ANOMALY":345.0472,"EPHEMERIS_TYPE":0,"CLASSIFICATION_TYPE":"U","NORAD_CAT_ID":23087,"ELEMENT_SET_NO":999,"REV_AT_EPOCH":64467,"BSTAR":0.00011438167,"MEAN_MOTION_DOT":1.72e-6,"MEAN_MOTION_DDOT":0},{"OBJECT_NAME":"SL-16 R/B","OBJECT_ID":"1994-023B","EPOCH":"2026-03-08T10:37:07.940064","MEAN_MOTION":14.15012385,"ECCENTRICITY":0.0005717,"INCLINATION":70.9986,"RA_OF_ASC_NODE":73.5067,"ARG_OF_PERICENTER":286.8109,"MEAN_ANOMALY":73.2387,"EPHEMERIS_TYPE":0,"CLASSIFICATION_TYPE":"U","NORAD_CAT_ID":23088,"ELEMENT_SET_NO":999,"REV_AT_EPOCH":64591,"BSTAR":-8.8597319e-5,"MEAN_MOTION_DOT":-2.19e-6,"MEAN_MOTION_DDOT":0},{"OBJECT_NAME":"SL-16 R/B","OBJECT_ID":"1994-074B","EPOCH":"2026-03-08T23:34:04.636704","MEAN_MOTION":14.79407254,"ECCENTRICITY":0.00057248,"INCLINATION":97.711,"RA_OF_ASC_NODE":98.8283,"ARG_OF_PERICENTER":213.1569,"MEAN_ANOMALY":209.1432,"EPHEMERIS_TYPE":0,"CLASSIFICATION_TYPE":"U","NORAD_CAT_ID":23343,"ELEMENT_SET_NO":999,"REV_AT_EPOCH":68714,"BSTAR":9.2348384e-5,"MEAN_MOTION_DOT":6.4e-6,"MEAN_MOTION_DDOT":0},{"OBJECT_NAME":"SL-16 R/B","OBJECT_ID":"1994-077B","EPOCH":"2026-03-08T22:03:40.342752","MEAN_MOTION":14.1556109,"ECCENTRICITY":0.00031461,"INCLINATION":70.9854,"RA_OF_ASC_NODE":354.1098,"ARG_OF_PERICENTER":213.1092,"MEAN_ANOMALY":146.9834,"EPHEMERIS_TYPE":0,"CLASSIFICATION_TYPE":"U","NORAD_CAT_ID":23405,"ELEMENT_SET_NO":999,"REV_AT_EPOCH":61612,"BSTAR":-1.9653215e-5,"MEAN_MOTION_DOT":-8.6e-7,"MEAN_MOTION_DDOT":0},{"OBJECT_NAME":"ARIANE 40+ R/B","OBJECT_ID":"1995-021B","EPOCH":"2026-03-08T18:49:18.030144","MEAN_MOTION":14.39771967,"ECCENTRICITY":0.00076168,"INCLINATION":98.4499,"RA_OF_ASC_NODE":139.2792,"ARG_OF_PERICENTER":138.8131,"MEAN_ANOMALY":333.3726,"EPHEMERIS_TYPE":0,"CLASSIFICATION_TYPE":"U","NORAD_CAT_ID":23561,"ELEMENT_SET_NO":999,"REV_AT_EPOCH":61911,"BSTAR":0.00014648658,"MEAN_MOTION_DOT":4.16e-6,"MEAN_MOTION_DDOT":0},{"OBJECT_NAME":"SL-16 R/B","OBJECT_ID":"1995-058B","EPOCH":"2026-03-08T17:08:24.819360","MEAN_MOTION":14.15494633,"ECCENTRICITY":0.00108403,"INCLINATION":71.0218,"RA_OF_ASC_NODE":182.3027,"ARG_OF_PERICENTER":127.578,"MEAN_ANOMALY":232.6329,"EPHEMERIS_TYPE":0,"CLASSIFICATION_TYPE":"U","NORAD_CAT_ID":23705,"ELEMENT_SET_NO":999,"REV_AT_EPOCH":56771,"BSTAR":0.00017208159,"MEAN_MOTION_DOT":2.89e-6,"MEAN_MOTION_DDOT":0},{"OBJECT_NAME":"SL-16 R/B","OBJECT_ID":"1996-051B","EPOCH":"2026-03-08T17:59:23.481312","MEAN_MOTION":14.12415463,"ECCENTRICITY":0.00151567,"INCLINATION":70.7603,"RA_OF_ASC_NODE":177.2284,"ARG_OF_PERICENTER":149.431,"MEAN_ANOMALY":210.7696,"EPHEMERIS_TYPE":0,"CLASSIFICATION_TYPE":"U","NORAD_CAT_ID":24298,"ELEMENT_SET_NO":999,"REV_AT_EPOCH":52151,"BSTAR":9.5552238e-5,"MEAN_MOTION_DOT":1.27e-6,"MEAN_MOTION_DDOT":0},{"OBJECT_NAME":"ORBVIEW 2 (SEASTAR)","OBJECT_ID":"1997-037A","EPOCH":"2026-03-08T22:19:10.046496","MEAN_MOTION":14.35494456,"ECCENTRICITY":0.00031122,"INCLINATION":98.8566,"RA_OF_ASC_NODE":232.2216,"ARG_OF_PERICENTER":73.6273,"MEAN_ANOMALY":286.5254,"EPHEMERIS_TYPE":0,"CLASSIFICATION_TYPE":"U","NORAD_CAT_ID":24883,"ELEMENT_SET_NO":999,"REV_AT_EPOCH":50836,"BSTAR":0.00016149593,"MEAN_MOTION_DOT":4.18e-6,"MEAN_MOTION_DDOT":0},{"OBJECT_NAME":"SL-16 R/B","OBJECT_ID":"1998-043G","EPOCH":"2026-03-08T21:21:04.805280","MEAN_MOTION":14.26049621,"ECCENTRICITY":0.00102597,"INCLINATION":98.8252,"RA_OF_ASC_NODE":21.2474,"ARG_OF_PERICENTER":22.6478,"MEAN_ANOMALY":337.5153,"EPHEMERIS_TYPE":0,"CLASSIFICATION_TYPE":"U","NORAD_CAT_ID":25400,"ELEMENT_SET_NO":999,"REV_AT_EPOCH":43887,"BSTAR":6.4164452e-5,"MEAN_MOTION_DOT":1.08e-6,"MEAN_MOTION_DDOT":0},{"OBJECT_NAME":"SL-16 R/B","OBJECT_ID":"1998-045B","EPOCH":"2026-03-08T17:24:50.349600","MEAN_MOTION":14.16189702,"ECCENTRICITY":0.00066709,"INCLINATION":71.0116,"RA_OF_ASC_NODE":183.6011,"ARG_OF_PERICENTER":9.7014,"MEAN_ANOMALY":350.4237,"EPHEMERIS_TYPE":0,"CLASSIFICATION_TYPE":"U","NORAD_CAT_ID":25407,"ELEMENT_SET_NO":999,"REV_AT_EPOCH":42696,"BSTAR":8.6007837e-5,"MEAN_MOTION_DOT":1.23e-6,"MEAN_MOTION_DDOT":0},{"OBJECT_NAME":"ISS (ZARYA)","OBJECT_ID":"1998-067A","EPOCH":"2026-03-08T17:44:01.330656","MEAN_MOTION":15.48531098,"ECCENTRICITY":0.00080508,"INCLINATION":51.6319,"RA_OF_ASC_NODE":77.0569,"ARG_OF_PERICENTER":171.0721,"MEAN_ANOMALY":189.0412,"EPHEMERIS_TYPE":0,"CLASSIFICATION_TYPE":"U","NORAD_CAT_ID":25544,"ELEMENT_SET_NO":999,"REV_AT_EPOCH":55618,"BSTAR":0.00018226947,"MEAN_MOTION_DOT":9.449e-5,"MEAN_MOTION_DDOT":0},{"OBJECT_NAME":"CZ-4B R/B","OBJECT_ID":"1999-025C","EPOCH":"2026-03-08T22:59:10.229856","MEAN_MOTION":14.18265191,"ECCENTRICITY":0.00367837,"INCLINATION":98.6628,"RA_OF_ASC_NODE":112.2567,"ARG_OF_PERICENTER":348.7502,"MEAN_ANOMALY":61.1373,"EPHEMERIS_TYPE":0,"CLASSIFICATION_TYPE":"U","NORAD_CAT_ID":25732,"ELEMENT_SET_NO":999,"REV_AT_EPOCH":38806,"BSTAR":5.3199639e-5,"MEAN_MOTION_DOT":6.7e-7,"MEAN_MOTION_DDOT":0},{"OBJECT_NAME":"OKEAN-O","OBJECT_ID":"1999-039A","EPOCH":"2026-03-08T18:33:29.700288","MEAN_MOTION":14.80334151,"ECCENTRICITY":0.00012754,"INCLINATION":97.9444,"RA_OF_ASC_NODE":127.6741,"ARG_OF_PERICENTER":70.0399,"MEAN_ANOMALY":290.095,"EPHEMERIS_TYPE":0,"CLASSIFICATION_TYPE":"U","NORAD_CAT_ID":25860,"ELEMENT_SET_NO":999,"REV_AT_EPOCH":43425,"BSTAR":0.00013142761,"MEAN_MOTION_DOT":9.5e-6,"MEAN_MOTION_DDOT":0},{"OBJECT_NAME":"SL-16 R/B","OBJECT_ID":"1999-039B","EPOCH":"2026-03-08T18:05:44.424960","MEAN_MOTION":14.81730457,"ECCENTRICITY":0.0013472,"INCLINATION":97.9968,"RA_OF_ASC_NODE":126.8521,"ARG_OF_PERICENTER":259.4407,"MEAN_ANOMALY":100.5288,"EPHEMERIS_TYPE":0,"CLASSIFICATION_TYPE":"U","NORAD_CAT_ID":25861,"ELEMENT_SET_NO":999,"REV_AT_EPOCH":43672,"BSTAR":0.00011143293,"MEAN_MOTION_DOT":8.25e-6,"MEAN_MOTION_DDOT":0},{"OBJECT_NAME":"DELTA 2 R/B","OBJECT_ID":"1999-041E","EPOCH":"2026-03-08T22:42:33.467616","MEAN_MOTION":14.11835757,"ECCENTRICITY":0.05023718,"INCLINATION":51.7627,"RA_OF_ASC_NODE":304.2503,"ARG_OF_PERICENTER":346.2414,"MEAN_ANOMALY":12.5237,"EPHEMERIS_TYPE":0,"CLASSIFICATION_TYPE":"U","NORAD_CAT_ID":25876,"ELEMENT_SET_NO":999,"REV_AT_EPOCH":36292,"BSTAR":0.00026052408,"MEAN_MOTION_DOT":1.382e-5,"MEAN_MOTION_DDOT":0}]
