SL-16 R/B               
1 22803U 93059B   26067.91225277 -.00000164  00000+0 -57480-4 0  9997
2 22803  70.9926  12.7650 0018578 217.6693 142.3131 14.17231748679425
ARIANE 40 R/B           
1 22830U 93061H   26067.79077752  .00000267  00000+0  11348-3 0  9993
2 22830  98.4917 136.6961 0009545 288.1291  71.8853 14.32860537693976
COSMOS 2278             
1 23087U 94023A   26067.74902924  .00000172  00000+0  11438-3 0  9995
2 23087  71.0551 177.0650 0007959  15.0886 345.0472 14.14378674644672
SL-16 R/B               
1 23088U 94023B   26067.44245301 -.00000219  00000+0 -88597-4 0  9997
2 23088  70.9986  73.5067 0005717 286.8109  73.2387 14.15012385645919
SL-16 R/B               
1 23343U 94074B   26067.98199811  .00000640  00000+0  92348-4 0  9995
2 23343  97.7110  98.8283 0005724 213.1569 209.1432 14.79407254687145
SL-16 R/B               
1 23405U 94077B   26067.91921693 -.00000086  00000+0 -19653-4 0  9995
2 23405  70.9854 354.1098 0003146 213.1092 146.9834 14.15561090616124
ARIANE 40+ R/B          
1 23561U 95021B   26067.78423646  .00000416  00000+0  14649-3 0  9992
2 23561  98.4499 139.2792 0007616 138.8131 333.3726 14.39771967619119
SL-16 R/B               
1 23705U 95058B   26067.71417615  .00000289  00000+0  17208-3 0  9996
2 23705  71.0218 182.3027 0010840 127.5780 232.6329 14.15494633567717
SL-16 R/B               
1 24298U 96051B   26067.74957733  .00000127  00000+0  95552-4 0  9991
2 24298  70.7603 177.2284 0015156 149.4310 210.7696 14.12415463521517
ORBVIEW 2 (SEASTAR)     
1 24883U 97037A   26067.92997739  .00000418  00000+0  16150-3 0  9995
2 24883  98.8566 232.2216 0003112  73.6273 286.5254 14.35494456508361
SL-16 R/B               
1 25400U 98043G   26067.88963895  .00000108  00000+0  64164-4 0  9995
2 25400  98.8252  21.2474 0010259  22.6478 337.5153 14.26049621438875
SL-16 R/B               
1 25407U 98045B   26067.72558275  .00000123  00000+0  86008-4 0  9997
2 25407  71.0116 183.6011 0006670   9.7014 350.4237 14.16189702426966
ISS (ZARYA)             
1 25544U 98067A   26067.73890429  .00009449  00000+0  18227-3 0  9991
2 25544  51.6319  77.0569 0008050 171.0721 189.0412 15.48531098556187
CZ-4B R/B               
1 25732U 99025C   26067.95775729  .00000067  00000+0  53200-4 0  9992
2 25732  98.6628 112.2567 0036783 348.7502  61.1373 14.18265191388064
OKEAN-O                 
1 25860U 99039A   26067.77326042  .00000950  00000+0  13143-3 0  9991
2 25860  97.9444 127.6741 0001275  70.0399 290.0950 14.80334151434254
SL-16 R/B               
1 25861U 99039B   26067.75398640  .00000825  00000+0  11143-3 0  9992
2 25861  97.9968 126.8521 0013472 259.4407 100.5288 14.81730457436721
DELTA 2 R/B             
1 25876U 99041E   26067.94622069  .00001382  00000+0  26052-3 0  9991
2 25876  51.7627 304.2503 0502371 346.2414  12.5237 14.11835757362921
